IRIDIUM 126             
1 42809U 17039G   25077.90905493  .00000781  00000+0  27173-3 0  9991
2 42809  86.4044 183.9002 0002315  88.6631 271.4830 14.34213973404692
IRIDIUM 124             
1 42810U 17039H   25077.61809729  .00000914  00000+0  26592-3 0  9998
2 42810  86.4472 120.8549 0002234  92.9195 267.2261 14.43268634409407
IRIDIUM 128             
1 42811U 17039J   25077.76026100  .00000473  00000+0  16176-3 0  9996
2 42811  86.4001 215.4258 0001839  90.6059 269.5348 14.34219535404703
IRIDIUM 121             
1 42812U 17039K   25077.78854880  .00000179  00000+0  56741-4 0  9999
2 42812  86.4050 183.9754 0002039 102.0893 258.0531 14.34213610404553
IRIDIUM 133             
1 42955U 17061A   25077.86174380  .00001067  00000+0  37405-3 0  9993
2 42955  86.3999 215.4892 0001987  89.6246 270.5177 14.34216474389513
IRIDIUM 100             
1 42956U 17061B   25077.85540124  .00000449  00000+0  15321-3 0  9992
2 42956  86.4000 215.4215 0001982  91.8200 268.3223 14.34217991389519
IRIDIUM 122             
1 42957U 17061C   25077.89345649  .00000059  00000+0  14144-4 0  9992
2 42957  86.4002 215.4046 0002161  91.1187 269.0256 14.34213854389520
IRIDIUM 129             
1 42958U 17061D   25077.91882804  .00000309  00000+0  10345-3 0  9991
2 42958  86.4004 215.4562 0002334 101.6611 258.4847 14.34218257389549
